{"type": "FeatureCollection", "features": [ {"type": "Feature", "properties": {"norad_id": 37834, "name": "INTELSAT 18 (IS-18)", "group": "intelsat", "lat": 0.019991577217152657, "lon": 5.869176594273512, "alt_km": 35787.4425921163, "timestamp": "2025-12-11T07:02:23.401549+00:00", "meta": {"OBJECT_NAME": "INTELSAT 18 (IS-18)", "OBJECT_ID": "2011-056A", "EPOCH": "2025-12-10T14:23:51.194976", "MEAN_MOTION": 1.00271736, "ECCENTRICITY": 0.00019912, "INCLINATION": 0.0186, "RA_OF_ASC_NODE": 329.247, "ARG_OF_PERICENTER": 297.0867, "MEAN_ANOMALY": 209.1989, "EPHEMERIS_TYPE": 0, "CLASSIFICATION_TYPE": "U", "NORAD_CAT_ID": 37834, "ELEMENT_SET_NO": 999, "REV_AT_EPOCH": 5192, "BSTAR": 0, "MEAN_MOTION_DOT": 5.7e-07, "MEAN_MOTION_DDOT": 0}, "tle": {"line1": "1 37834U 11056A   25344.59989809  .00000057  00000+0  00000+0 0  9993", "line2": "2 37834   0.0186 329.2470 0001991 297.0867 209.1989  1.00271736 51920"}}, "geometry": {"type": "Point", "coordinates": [5.869176594273512, 0.019991577217152657]}}, {"type": "Feature", "properties": {"norad_id": 38098, "name": "INTELSAT 22 (IS-22)", "group": "intelsat", "lat": -0.019941967419052662, "lon": -102.03143559907248, "alt_km": 35779.07969883961, "timestamp": "2025-12-11T07:02:23.401561+00:00", "meta": {"OBJECT_NAME": "INTELSAT 22 (IS-22)", "OBJECT_ID": "2012-011A", "EPOCH": "2025-12-10T21:10:10.225920", "MEAN_MOTION": 1.00271186, "ECCENTRICITY": 0.00017194, "INCLINATION": 0.0021, "RA_OF_ASC_NODE": 355.6086, "ARG_OF_PERICENTER": 272.2396, "MEAN_ANOMALY": 201.6682, "EPHEMERIS_TYPE": 0, "CLASSIFICATION_TYPE": "U", "NORAD_CAT_ID": 38098, "ELEMENT_SET_NO": 999, "REV_AT_EPOCH": 530, "BSTAR": 0, "MEAN_MOTION_DOT": -5.4e-07, "MEAN_MOTION_DDOT": 0}, "tle": {"line1": "1 38098U 12011A   25344.88206280 -.00000054  00000+0  00000+0 0  9993", "line2": "2 38098   0.0021 355.6086 0001719 272.2396 201.6682  1.00271186  5304"}}, "geometry": {"type": "Point", "coordinates": [-102.03143559907248, -0.019941967419052662]}}, {"type": "Feature", "properties": {"norad_id": 38356, "name": "INTELSAT 19 (IS-19)", "group": "intelsat", "lat": 0.00702010426987203, "lon": -8.102846945605894, "alt_km": 35784.431276075535, "timestamp": "2025-12-11T07:02:23.401578+00:00", "meta": {"OBJECT_NAME": "INTELSAT 19 (IS-19)", "OBJECT_ID": "2012-030A", "EPOCH": "2025-12-10T19:28:04.522944", "MEAN_MOTION": 1.00272034, "ECCENTRICITY": 0.0003484, "INCLINATION": 0.0092, "RA_OF_ASC_NODE": 336.1413, "ARG_OF_PERICENTER": 291.9303, "MEAN_ANOMALY": 269.7352, "EPHEMERIS_TYPE": 0, "CLASSIFICATION_TYPE": "U", "NORAD_CAT_ID": 38356, "ELEMENT_SET_NO": 999, "REV_AT_EPOCH": 4856, "BSTAR": 0, "MEAN_MOTION_DOT": -5.1e-07, "MEAN_MOTION_DDOT": 0}, "tle": {"line1": "1 38356U 12030A   25344.81116346 -.00000051  00000+0  00000+0 0  9994", "line2": "2 38356   0.0092 336.1413 0003484 291.9303 269.7352  1.00272034 48561"}}, "geometry": {"type": "Point", "coordinates": [-8.102846945605894, 0.00702010426987203]}}, {"type": "Feature", "properties": {"norad_id": 38740, "name": "INTELSAT 20 (IS-20)", "group": "intelsat", "lat": -0.007642409619341913, "lon": -105.60481329175863, "alt_km": 35779.7541182333, "timestamp": "2025-12-11T07:02:23.401592+00:00", "meta": {"OBJECT_NAME": "INTELSAT 20 (IS-20)", "OBJECT_ID": "2012-043A", "EPOCH": "2025-12-10T20:36:25.339968", "MEAN_MOTION": 1.0027642, "ECCENTRICITY": 0.00027491, "INCLINATION": 0.0128, "RA_OF_ASC_NODE": 86.5275, "ARG_OF_PERICENTER": 103.4146, "MEAN_ANOMALY": 267.5009, "EPHEMERIS_TYPE": 0, "CLASSIFICATION_TYPE": "U", "NORAD_CAT_ID": 38740, "ELEMENT_SET_NO": 999, "REV_AT_EPOCH": 4886, "BSTAR": 0, "MEAN_MOTION_DOT": -2.1e-07, "MEAN_MOTION_DDOT": 0}, "tle": {"line1": "1 38740U 12043A   25344.85862662 -.00000021  00000+0  00000+0 0  9995", "line2": "2 38740   0.0128  86.5275 0002749 103.4146 267.5009  1.00276420 48866"}}, "geometry": {"type": "Point", "coordinates": [-105.60481329175863, -0.007642409619341913]}}, {"type": "Feature", "properties": {"norad_id": 38749, "name": "INTELSAT 21 (IS-21)", "group": "intelsat", "lat": 0.022986916743863415, "lon": 127.82474476293629, "alt_km": 35792.333050687994, "timestamp": "2025-12-11T07:02:23.401603+00:00", "meta": {"OBJECT_NAME": "INTELSAT 21 (IS-21)", "OBJECT_ID": "2012-045A", "EPOCH": "2025-12-10T20:06:53.306208", "MEAN_MOTION": 1.00270049, "ECCENTRICITY": 0.00020905, "INCLINATION": 0.0183, "RA_OF_ASC_NODE": 54.0529, "ARG_OF_PERICENTER": 203.9968, "MEAN_ANOMALY": 65.4761, "EPHEMERIS_TYPE": 0, "CLASSIFICATION_TYPE": "U", "NORAD_CAT_ID": 38749, "ELEMENT_SET_NO": 999, "REV_AT_EPOCH": 4863, "BSTAR": 0, "MEAN_MOTION_DOT": -2.8e-06, "MEAN_MOTION_DDOT": 0}, "tle": {"line1": "1 38749U 12045A   25344.83811697 -.00000280  00000+0  00000+0 0  9993", "line2": "2 38749   0.0183  54.0529 0002090 203.9968  65.4761  1.00270049 48631"}}, "geometry": {"type": "Point", "coordinates": [127.82474476293629, 0.022986916743863415]}}, {"type": "Feature", "properties": {"norad_id": 38867, "name": "INTELSAT 23 (IS-23)", "group": "intelsat", "lat": 0.03551991909029616, "lon": 132.72856867073577, "alt_km": 35785.826214434746, "timestamp": "2025-12-11T07:02:23.401616+00:00", "meta": {"OBJECT_NAME": "INTELSAT 23 (IS-23)", "OBJECT_ID": "2012-057A", "EPOCH": "2025-12-09T20:10:10.491744", "MEAN_MOTION": 1.00260311, "ECCENTRICITY": 0.00020064, "INCLINATION": 0.0432, "RA_OF_ASC_NODE": 94.7791, "ARG_OF_PERICENTER": 102.2636, "MEAN_ANOMALY": 131.2856, "EPHEMERIS_TYPE": 0, "CLASSIFICATION_TYPE": "U", "NORAD_CAT_ID": 38867, "ELEMENT_SET_NO": 999, "REV_AT_EPOCH": 4805, "BSTAR": 0, "MEAN_MOTION_DOT": -2.82e-06, "MEAN_MOTION_DDOT": 0}, "tle": {"line1": "1 38867U 12057A   25343.84039921 -.00000282  00000+0  00000+0 0  9991", "line2": "2 38867   0.0432  94.7791 0002006 102.2636 131.2856  1.00260311 48055"}}, "geometry": {"type": "Point", "coordinates": [132.72856867073577, 0.03551991909029616]}}, {"type": "Feature", "properties": {"norad_id": 39360, "name": "FM-6", "group": "intelsat", "lat": 0.009808198981005678, "lon": 69.65626536795673, "alt_km": 35789.622149958894, "timestamp": "2025-12-11T07:02:23.401628+00:00", "meta": {"OBJECT_NAME": "FM-6", "OBJECT_ID": "2013-058A", "EPOCH": "2025-12-10T16:24:48.771648", "MEAN_MOTION": 1.00269319, "ECCENTRICITY": 0.00028652, "INCLINATION": 0.0074, "RA_OF_ASC_NODE": 61.5129, "ARG_OF_PERICENTER": 111.9114, "MEAN_ANOMALY": 36.2778, "EPHEMERIS_TYPE": 0, "CLASSIFICATION_TYPE": "U", "NORAD_CAT_ID": 39360, "ELEMENT_SET_NO": 999, "REV_AT_EPOCH": 4418, "BSTAR": 0, "MEAN_MOTION_DOT": -1.2e-07, "MEAN_MOTION_DDOT": 0}, "tle": {"line1": "1 39360U 13058A   25344.68389782 -.00000012  00000+0  00000+0 0  9999", "line2": "2 39360   0.0074  61.5129 0002865 111.9114  36.2778  1.00269319 44188"}}, "geometry": {"type": "Point", "coordinates": [69.65626536795673, 0.009808198981005678]}}, {"type": "Feature", "properties": {"norad_id": 40271, "name": "INTELSAT 30 (IS-30)", "group": "intelsat", "lat": 0.02949221777554577, "lon": 90.78119181634186, "alt_km": 35781.296207738276, "timestamp": "2025-12-11T07:02:23.401640+00:00", "meta": {"OBJECT_NAME": "INTELSAT 30 (IS-30)", "OBJECT_ID": "2014-062A", "EPOCH": "2025-12-10T19:56:16.821600", "MEAN_MOTION": 1.00269622, "ECCENTRICITY": 0.00013007, "INCLINATION": 0.0174, "RA_OF_ASC_NODE": 29.1064, "ARG_OF_PERICENTER": 50.969, "MEAN_ANOMALY": 203.7271, "EPHEMERIS_TYPE": 0, "CLASSIFICATION_TYPE": "U", "NORAD_CAT_ID": 40271, "ELEMENT_SET_NO": 999, "REV_AT_EPOCH": 489, "BSTAR": 0, "MEAN_MOTION_DOT": -1.46e-06, "MEAN_MOTION_DDOT": 0}, "tle": {"line1": "1 40271U 14062A   25344.83075025 -.00000146  00000+0  00000+0 0  9995", "line2": "2 40271   0.0174  29.1064 0001300  50.9690 203.7271  1.00269622  4894"}}, "geometry": {"type": "Point", "coordinates": [90.78119181634186, 0.02949221777554577]}}, {"type": "Feature", "properties": {"norad_id": 40333, "name": "DIRECTV 14", "group": "intelsat", "lat": 0.03076524862086579, "lon": 86.63520487083946, "alt_km": 35786.35485778627, "timestamp": "2025-12-11T07:02:23.401651+00:00", "meta": {"OBJECT_NAME": "DIRECTV 14", "OBJECT_ID": "2014-078B", "EPOCH": "2025-12-10T19:55:09.428736", "MEAN_MOTION": 1.00272899, "ECCENTRICITY": 4.332e-05, "INCLINATION": 0.0175, "RA_OF_ASC_NODE": 323.2258, "ARG_OF_PERICENTER": 231.6698, "MEAN_ANOMALY": 84.4814, "EPHEMERIS_TYPE": 0, "CLASSIFICATION_TYPE": "U", "NORAD_CAT_ID": 40333, "ELEMENT_SET_NO": 999, "REV_AT_EPOCH": 4015, "BSTAR": 0, "MEAN_MOTION_DOT": -1.21e-06, "MEAN_MOTION_DDOT": 0}, "tle": {"line1": "1 40333U 14078B   25344.82997024 -.00000121  00000+0  00000+0 0  9995", "line2": "2 40333   0.0175 323.2258 0000433 231.6698  84.4814  1.00272899 40155"}}, "geometry": {"type": "Point", "coordinates": [86.63520487083946, 0.03076524862086579]}}, {"type": "Feature", "properties": {"norad_id": 40663, "name": "DIRECTV 15", "group": "intelsat", "lat": 0.01726263296400015, "lon": 82.9794927830296, "alt_km": 35787.50560607533, "timestamp": "2025-12-11T07:02:23.401676+00:00", "meta": {"OBJECT_NAME": "DIRECTV 15", "OBJECT_ID": "2015-026A", "EPOCH": "2025-12-10T19:53:54.549312", "MEAN_MOTION": 1.00270849, "ECCENTRICITY": 3.133e-05, "INCLINATION": 0.041, "RA_OF_ASC_NODE": 84.6523, "ARG_OF_PERICENTER": 149.0954, "MEAN_ANOMALY": 41.6611, "EPHEMERIS_TYPE": 0, "CLASSIFICATION_TYPE": "U", "NORAD_CAT_ID": 40663, "ELEMENT_SET_NO": 999, "REV_AT_EPOCH": 3857, "BSTAR": 0, "MEAN_MOTION_DOT": -9.8e-07, "MEAN_MOTION_DDOT": 0}, "tle": {"line1": "1 40663U 15026A   25344.82910358 -.00000098  00000+0  00000+0 0  9993", "line2": "2 40663   0.0410  84.6523 0000313 149.0954  41.6611  1.00270849 38576"}}, "geometry": {"type": "Point", "coordinates": [82.9794927830296, 0.01726263296400015]}}]}